GOES 1 [-]              
1 08366U 75100A   12354.98743977 -.00000095  00000-0  10000-3 0  2403
2 08366  13.8490 336.4686 0001056 153.3497 206.6502  1.00227817135806
GOES 2 [-]              
1 10061U 77048A   12354.20373045 -.00000119  00000-0  10000-3 0  4365
2 10061  14.6166 345.0074 0013129 280.2002  79.6437  0.99400930 74536
GOES 3 [P]              
1 10953U 78062A   12355.02350859 -.00000098  00000-0  10000-3 0   509
2 10953  14.5451 348.6093 0004571  83.3283 276.7147  1.00275979 79524
GOES 4 [-]              
1 11964U 80074A   12354.61635106  .00000035  00000-0  10000-3 0  6600
2 11964  15.1044 352.2724 0032586 333.3964  26.4298  0.99228719 78742
GOES 5 [-]              
1 12472U 81049A   12354.12949198  .00000042  00000-0  10000-3 0  5363
2 12472  14.6390   2.4631 0002973 132.9936 227.0282  1.00227308 73557
GOES 6 [-]              
1 14050U 83041A   12353.09608246 -.00000057  00000-0  10000-3 0  5493
2 14050  14.5550   7.3525 0004361  85.3083 274.7400  1.00220558166645
GOES 7 [-]              
1 17561U 87022A   12353.20154282  .00000080  00000-0  10000-3 0  7492
2 17561  14.1184  23.7060 0002386 333.1486  26.8361  0.99895276 77742
GOES 8 [-]              
1 23051U 94022A   12354.50291483 -.00000281  00000-0  10000-3 0  3850
2 23051   8.7047  56.7640 0005598 197.2882 162.6119  0.98907832 75397
GOES 9 [P]              
1 23581U 95025A   12353.10641437 -.00000112  00000-0  10000-3 0  6716
2 23581   8.2383  55.2264 0004095  23.6354 336.3008  0.98799546 64077
GOES 10 [-]             
1 24786U 97019A   12354.25226777  .00000064  00000-0  10000-3 0  6043
2 24786   6.4793  58.5904 0027245 109.0039 251.1660  0.99121187 57226
GOES 11 [+]             
1 26352U 00022A   12354.97196026 -.00000013  00000-0  00000+0 0   363
2 26352   1.5548 108.3262 0003633  31.5714 327.8185  0.99042803 46213
GOES 12 [B]             
1 26871U 01031A   12355.24423296 -.00000288  00000-0  10000-3 0  8584
2 26871   2.6679  71.0599 0002078 217.3238 189.2243  1.00269572 41860
GOES 13 [+]             
1 29155U 06018A   12355.23608334 -.00000253  00000-0  10000-3 0  3441
2 29155   0.2702  97.7208 0001385 342.9100  19.0416  1.00268539 24117
GOES 14 [S]             
1 35491U 09033A   12354.29273711 -.00000185  00000-0  10000-3 0  7564
2 35491   0.1651 261.5736 0005236 279.7845 282.6190  1.00264448 12779
GOES 15 [S]             
1 36411U 10008A   12355.31631838  .00000088  00000-0  10000-3 0  3661
2 36411   0.1862 258.2072 0002514  13.0754 156.4138  1.00270910 10281
